#aV2019  3  8  0  0  0.00000000     288 DD+AD WGS84 FIT  NGA
## 2043 432000.00000000   300.00000000 58550 0.0000000000000
+   31     1  2  3  5  6  7  8  9 10 11 12 13 14 15 16 17 18
+         19 20 21 22 23 24 25 26 27 28 29 30 31 32  0  0  0
+          0  0  0  0  0  0  0  0  0  0  0  0  0  0  0  0  0
+          0  0  0  0  0  0  0  0  0  0  0  0  0  0  0  0  0
+          0  0  0  0  0  0  0  0  0  0  0  0  0  0  0  0  0
++         2  2  2  2  2  2  2  2  2  2  2  2  2  2  2  2  2
++         2  2  2  2  2  2  2  2  2  2  2  2  2  2  0  0  0
++         0  0  0  0  0  0  0  0  0  0  0  0  0  0  0  0  0
++         0  0  0  0  0  0  0  0  0  0  0  0  0  0  0  0  0
++         0  0  0  0  0  0  0  0  0  0  0  0  0  0  0  0  0
%c cc cc ccc ccc cccc cccc cccc cccc ccccc ccccc ccccc ccccc
%c cc cc ccc ccc cccc cccc cccc cccc ccccc ccccc ccccc ccccc
%f  0.0000000  0.000000000  0.00000000000  0.000000000000000
%f  0.0000000  0.000000000  0.00000000000  0.000000000000000
%i    0    0    0    0      0      0      0      0         0
%i    0    0    0    0      0      0      0      0         0
/*      NGA, ST. LOUIS,MO.                                  
/*   EPHEMERIS COMPUTED FROM 2 DAYS OF DATA                 
/*   EPOCHA v3 SMOOTHER                                     
/*   G1762 IERS2010 SATAF SATAPC                            
*  2019  3  8  3 55  0.00000000
P  1  22640.897255  14214.674073   -435.899876   -176.515025                    
V  1  -1399.155222   1632.616048 -31834.618174     -0.073827                    
P  2  -6424.212007 -18386.272493  18741.224605   -157.920713                    
V  2  20581.437574   9255.813443  16508.197487     -0.096972                    
P  3  12788.658551  13723.719055  18796.048489    185.720457                    
V  3  -1881.690211  23875.701069 -16047.176925      0.012403                    
P  5  -2709.842613 -26074.472675  -3637.338537      1.164183                    
V  5   3276.431756  -4522.274386  31183.636382      0.000216                    
P  6   6151.651157 -13704.676073  21947.946746    260.183022                    
V  6  23845.730132  14132.812877   2174.903757     -0.086602                    
P  7  23255.856810   4322.984394 -12285.092835     19.150366                    
V  7  12251.735226  10260.701631  25816.305426     -0.073123                    
P  8   9926.298007  11496.072818 -21759.823763   -135.346901                    
V  8 -23974.505074  13848.359424  -3419.158897     -0.013266                    
P  9  24166.949778  -6479.074663   8885.983562    448.499656                    
V  9  -8484.505911   8049.931192  28785.569081     -0.056681                    
P 10 -11399.181454  17799.094065 -15906.265494    102.079017                    
V 10  -1646.792850 -20410.346507 -21771.448168     -0.083283                    
P 11  22106.903002  10543.521904 -10510.521600   -648.779821                    
V 11 -13123.536474   2572.916014 -26605.174686      0.064279                    
P 12 -10689.099946 -16073.451302  18119.301097    262.020399                    
V 12   3172.798800 -23117.645691 -18247.942666     -0.032467                    
P 13   -805.358732 -15649.820256 -21555.899715    -72.506601                    
V 13  25320.449704  -9612.151134   6101.661780      0.013744                    
P 14 -14310.650255  17395.187305  14235.761295    -89.152999                    
V 14 -16956.197821   5285.988090 -24205.945136      0.014061                    
P 15 -13313.814870  -9976.246894 -21017.126981   -324.597313                    
V 15  21359.972526 -15128.075545  -6036.449792      0.018226                    
P 16   1058.725890  25721.128059  -5692.926950    -23.899449                    
V 16  -3073.768668   6781.710796  31456.804975     -0.025921                    
P 17  20996.382149 -14982.273198   6535.458748     20.188361                    
V 17   7856.984016  -1586.065526 -30890.680766      0.056968                    
P 18  17328.270717  17688.659259 -10277.229626     32.759232                    
V 18 -12022.291623  -3674.093880 -27775.562788      0.036371                    
P 19  15649.510875 -16504.157041  13503.029185   -344.758282                    
V 19  16824.570290  -5327.157926 -25363.504977      0.042337                    
P 20 -14607.928883   8415.647549 -20605.025089    522.884656                    
V 20  -3573.049403 -25844.093369  -8206.352098      0.003497                    
P 21 -21740.618757    175.632501 -14367.501285   -236.747602                    
V 21 -16164.502586 -11648.272351  23166.245358      0.073376                    
P 22  11097.976962  20209.947274  13469.325500   -659.811884                    
V 22  -2088.587734  16905.932729 -24013.490922     -0.076921                    
P 23  20194.905162   3032.593841  17511.125128   -194.816803                    
V 23 -17829.849403  12157.118381  18392.528730      0.013632                    
P 24 -21389.985865 -15402.161751  -4637.789304    -63.078622                    
V 24   6473.049110    -67.638789 -30319.023028     -0.004236                    
P 25 -14740.755236  -3211.410599  21674.948146   -730.163233                    
V 25    838.471131 -27942.427422  -3284.046310     -0.050939                    
P 26  -3852.350836  25591.330049   5521.084283    143.342568                    
V 26  -3153.814893  -7064.957849  30635.027000      0.101587                    
P 27  -1368.314141  16651.456115 -20664.043001    -81.640727                    
V 27 -23234.355842  11833.220835  11411.869776     -0.078109                    
P 28  12596.508893 -16435.386429 -16076.414279    765.938042                    
V 28   -819.338929  21522.451520 -21739.184199      0.007650                    
P 29 -23028.962171   1199.009183  13148.139195    254.443294                    
V 29  14409.056326  -8592.917594  25976.430103     -0.087953                    
P 30  16975.733510  -5843.188536 -19612.151037    -64.669790                    
V 30  20019.198838  14952.670200  12685.328126     -0.065697                    
P 31  -5743.491993  14287.067152  21605.980901     53.711459                    
V 31 -23367.460313 -14466.214724   3790.707213     -0.026444                    
P 32 -18592.618580  17039.027224   8199.126884   -191.929856                    
V 32 -10428.555403   2635.540077 -29393.772069      0.187329                    
EOF
